NORAD_CAT_ID,OBJECT_NAME,OBJECT_TYPE,EPOCH,MEAN_MOTION,ECCENTRICITY,INCLINATION,RA_OF_ASC_NODE,ARG_OF_PERICENTER,MEAN_ANOMALY,BSTAR,MEAN_MOTION_DOT,MEAN_MOTION_DDOT,TLE_LINE0,TLE_LINE1,TLE_LINE2,SEMIMAJOR_AXIS,PERIOD,APOGEE,PERIGEE,DECAYED
50166.0,STARLINK-3305,PAYLOAD,2024-08-02 19:13:37,15.08831549,0.0001331,53.218,350.233,74.9237,285.1902,3.082e-05,2.03e-06,0.0,0 STARLINK-3305,1 50166U 21125L   24215.80113354  .00000203  00000-0  30820-4 0  9990,2 50166  53.2180 350.2330 0001331  74.9237 285.1902 15.08831549148447,6917.906,95.438,540.692,538.85,0.0
50166.0,STARLINK-3305,PAYLOAD,2024-08-03 12:42:51,15.08849237,0.0001594,53.2191,346.9634,48.7185,311.3944,-7.2315e-05,-1.439e-05,0.0,0 STARLINK-3305,1 50166U 21125L   24216.52976693 -.00001439  00000-0 -72315-4 0  9992,2 50166  53.2191 346.9634 0001594  48.7185 311.3944 15.08849237145471,6917.852,95.437,540.82,538.614,0.0
50166.0,STARLINK-3305,PAYLOAD,2024-08-03 14:18:14,15.08843892,0.0002125,53.219,346.6658,97.281,262.8423,0.00019024,2.741e-05,0.0,0 STARLINK-3305,1 50166U 21125L   24216.59600001  .00002741  00000-0  19024-3 0  9998,2 50166  53.2190 346.6658 0002125  97.2810 262.8423 15.08843892148564,6917.868,95.437,541.204,538.263,0.0
50166.0,STARLINK-3305,PAYLOAD,2024-08-03 15:53:37,15.08846688,0.0002135,53.2184,346.3709,97.2695,262.8539,0.00021237,3.094e-05,0.0,0 STARLINK-3305,1 50166U 21125L   24216.66223772  .00003094  00000-0  21237-3 0  9993,2 50166  53.2184 346.3709 0002135  97.2695 262.8539 15.08846688145496,6917.86,95.437,541.202,538.248,0.0
50166.0,STARLINK-3305,PAYLOAD,2024-08-04 12:33:39,15.0883483,0.0002202,53.2187,342.504,83.6796,276.4447,0.00014242,1.979e-05,0.0,0 STARLINK-3305,1 50166U 21125L   24217.52336956  .00001979  00000-0  14242-3 0  9996,2 50166  53.2187 342.5040 0002202  83.6796 276.4447 15.08834830145621,6917.896,95.438,541.285,538.238,0.0
50166.0,STARLINK-3305,PAYLOAD,2024-08-04 14:09:02,15.08833435,0.0001983,53.2196,342.2085,89.8863,270.2356,0.00013003,1.782e-05,0.0,0 STARLINK-3305,1 50166U 21125L   24217.58961038  .00001782  00000-0  13003-3 0  9993,2 50166  53.2196 342.2085 0001983  89.8863 270.2356 15.08833435148719,6917.9,95.438,541.137,538.394,0.0
50166.0,STARLINK-3305,PAYLOAD,2024-08-04 15:44:24,15.08846676,0.000153,53.2182,341.9072,73.5369,286.5791,0.0002103,3.061e-05,0.0,0 STARLINK-3305,1 50166U 21125L   24217.65583912  .00003061  00000-0  21030-3 0  9993,2 50166  53.2182 341.9072 0001530  73.5369 286.5791 15.08846676145648,6917.86,95.437,540.783,538.667,0.0
50166.0,STARLINK-3305,PAYLOAD,2024-08-05 12:24:25,15.08851306,0.0001517,53.2188,338.0466,94.0546,266.062,-9.6117e-07,-3.03e-06,0.0,0 STARLINK-3305,1 50166U 21125L   24218.51695976 -.00000303  00000-0 -96117-6 0  9992,2 50166  53.2188 338.0466 0001517  94.0546 266.0620 15.08851306145772,6917.846,95.437,540.76,538.661,0.0
50166.0,STARLINK-3305,PAYLOAD,2024-08-05 15:35:10,15.08863839,0.0001472,53.2186,337.4457,86.0555,274.0606,0.00011494,1.543e-05,0.0,0 STARLINK-3305,1 50166U 21125L   24218.64942679  .00001543  00000-0  11494-3 0  9998,2 50166  53.2186 337.4457 0001472  86.0555 274.0606 15.08863839145793,6917.808,95.436,540.691,538.654,0.0
50166.0,STARLINK-3305,PAYLOAD,2024-08-06 13:50:36,15.08828568,0.0001778,53.2201,333.2859,91.2606,268.859,-1.7773e-05,-5.71e-06,0.0,0 STARLINK-3305,1 50166U 21125L   24219.57681670 -.00000571  00000-0 -17773-4 0  9991,2 50166  53.2201 333.2859 0001778  91.2606 268.8590 15.08828568145934,6917.915,95.438,541.01,538.55,0.0
50166.0,STARLINK-3305,PAYLOAD,2024-08-06 15:25:59,15.08836115,0.0001515,53.2183,332.9879,94.6112,265.5053,-4.7483e-05,-1.044e-05,0.0,0 STARLINK-3305,1 50166U 21125L   24219.64305122 -.00001044  00000-0 -47483-4 0  9991,2 50166  53.2183 332.9879 0001515  94.6112 265.5053 15.08836115145945,6917.892,95.438,540.805,538.709,0.0
50166.0,STARLINK-3305,PAYLOAD,2024-08-07 12:05:59,15.08838604,0.0001255,53.2182,329.1219,97.0098,263.1037,0.00011327,1.515e-05,0.0,0 STARLINK-3305,1 50166U 21125L   24220.50416576  .00001515  00000-0  11327-3 0  9992,2 50166  53.2182 329.1219 0001255  97.0098 263.1037 15.08838604146077,6917.885,95.438,540.618,538.881,0.0
50166.0,STARLINK-3305,PAYLOAD,2024-08-08 13:32:09,15.08838497,0.0001343,53.2175,324.3645,104.9774,255.1367,0.00040136,6.105e-05,0.0,0 STARLINK-3305,1 50166U 21125L   24221.56400142  .00006105  00000-0  40136-3 0  9991,2 50166  53.2175 324.3645 0001343 104.9774 255.1367 15.08838497149313,6917.885,95.438,540.679,538.821,0.0
50166.0,STARLINK-3305,PAYLOAD,2024-08-09 13:22:56,15.08847943,0.0001443,53.2181,319.905,92.6402,267.4755,0.00011004,1.464e-05,0.0,0 STARLINK-3305,1 50166U 21125L   24222.55760275  .00001464  00000-0  11004-3 0  9992,2 50166  53.2181 319.9050 0001443  92.6402 267.4755 15.08847943149461,6917.856,95.437,540.719,538.723,0.0
50166.0,STARLINK-3305,PAYLOAD,2024-08-09 16:33:42,15.08853046,0.0001546,53.2164,319.3086,84.7384,275.3785,0.00020475,2.973e-05,0.0,0 STARLINK-3305,1 50166U 21125L   24222.69007925  .00002973  00000-0  20475-3 0  9991,2 50166  53.2164 319.3086 0001546  84.7384 275.3785 15.08853046146403,6917.841,95.437,540.775,538.636,0.0
50166.0,STARLINK-3305,PAYLOAD,2024-08-10 13:13:44,15.0884512,0.0001522,53.2168,315.4425,107.3939,252.722,8.973e-05,1.141e-05,0.0,0 STARLINK-3305,1 50166U 21125L   24223.55120741  .00001141  00000-0  89730-4 0  9995,2 50166  53.2168 315.4425 0001522 107.3939 252.7220 15.08845120146534,6917.865,95.437,540.783,538.677,0.0
50166.0,STARLINK-3305,PAYLOAD,2024-08-10 22:46:01,15.08873294,0.0001292,53.2167,313.6599,95.8036,264.3104,0.00052542,8.092e-05,0.0,0 STARLINK-3305,1 50166U 21125L   24223.94862795  .00008092  00000-0  52542-3 0  9992,2 50166  53.2167 313.6599 0001292  95.8036 264.3104 15.08873294146597,6917.779,95.435,540.537,538.75,0.0
50166.0,STARLINK-3305,PAYLOAD,2024-08-11 13:04:32,15.08810848,0.0001266,53.2163,310.9781,55.1337,304.9774,-0.00046954,-7.747e-05,0.0,0 STARLINK-3305,1 50166U 21125L   24224.54481716 -.00007747  00000-0 -46954-3 0  9997,2 50166  53.2163 310.9781 0001266  55.1337 304.9774 15.08810848146680,6917.969,95.439,540.71,538.959,0.0
50166.0,STARLINK-3305,PAYLOAD,2024-08-11 22:36:52,15.08794448,8.96e-05,53.2167,309.2,77.0304,283.0788,-0.00064046,-0.00010453,0.0,0 STARLINK-3305,1 50166U 21125L   24224.94227338 -.00010453  00000-0 -64046-3 0  9999,2 50166  53.2167 309.2000 0000896  77.0304 283.0788 15.08794448149822,6918.02,95.44,540.504,539.265,0.0
50166.0,STARLINK-3305,PAYLOAD,2024-08-12 04:58:25,15.08793812,3.49e-05,53.2158,308.0069,49.2252,310.877,-0.00032435,-5.439e-05,0.0,0 STARLINK-3305,1 50166U 21125L   24225.20724151 -.00005439  00000-0 -32435-3 0  9999,2 50166  53.2158 308.0069 0000349  49.2252 310.8770 15.08793812146786,6918.022,95.44,540.128,539.645,0.0
50166.0,STARLINK-3305,PAYLOAD,2024-08-12 09:44:33,15.08839774,0.0001541,53.2164,307.1167,99.7938,260.3228,0.00019374,2.797e-05,0.0,0 STARLINK-3305,1 50166U 21125L   24225.40594064  .00002797  00000-0  19374-3 0  9998,2 50166  53.2164 307.1167 0001541  99.7938 260.3228 15.08839774146817,6917.881,95.438,540.812,538.68,0.0
50166.0,STARLINK-3305,PAYLOAD,2024-08-12 14:30:41,15.08865884,9.46e-05,53.2163,306.2247,76.5549,283.5549,0.00073664,0.00011463,0.0,0 STARLINK-3305,1 50166U 21125L   24225.60465011  .00011463  00000-0  73664-3 0  9991,2 50166  53.2163 306.2247 0000946  76.5549 283.5549 15.08865884149923,6917.801,95.436,540.321,539.012,0.0
50166.0,STARLINK-3305,PAYLOAD,2024-08-13 04:49:11,15.08840437,0.0002949,53.2162,303.5475,119.7309,240.3977,0.00041937,6.392e-05,0.0,0 STARLINK-3305,1 50166U 21125L   24226.20082457  .00006392  00000-0  41937-3 0  9990,2 50166  53.2162 303.5475 0002949 119.7309 240.3977 15.08840437146935,6917.879,95.438,541.784,537.704,0.0
50166.0,STARLINK-3305,PAYLOAD,2024-08-13 09:35:21,15.08813289,1.84e-05,53.2153,302.6488,99.8952,260.2061,1.9997e-05,3.1e-07,0.0,0 STARLINK-3305,1 50166U 21125L   24226.39955732  .00000031  00000-0  19997-4 0  9991,2 50166  53.2153 302.6488 0000184  99.8952 260.2061 15.08813289146963,6917.962,95.439,539.954,539.7,0.0
50166.0,STARLINK-3305,PAYLOAD,2024-08-13 14:21:32,15.08801423,0.0001172,53.2137,301.7595,104.9803,255.1318,2.4184e-05,9.7e-07,0.0,0 STARLINK-3305,1 50166U 21125L   24226.59828713  .00000097  00000-0  24184-4 0  9997,2 50166  53.2137 301.7595 0001172 104.9803 255.1318 15.08801423150077,6917.998,95.44,540.674,539.053,0.0
50166.0,STARLINK-3305,PAYLOAD,2024-08-13 22:18:26,15.0883471,5.92e-05,53.2133,300.2751,86.3202,273.7858,0.00047678,7.307e-05,0.0,0 STARLINK-3305,1 50166U 21125L   24226.92947738  .00007307  00000-0  47678-3 0  9996,2 50166  53.2133 300.2751 0000592  86.3202 273.7858 15.08834710150128,6917.897,95.438,540.171,539.352,0.0
50166.0,STARLINK-3305,PAYLOAD,2024-08-14 11:01:31,15.08852857,9.79e-05,53.2164,297.9012,70.4461,289.6636,0.0004507,6.895e-05,0.0,0 STARLINK-3305,1 50166U 21125L   24227.45939062  .00006895  00000-0  45070-3 0  9991,2 50166  53.2164 297.9012 0000979  70.4461 289.6636 15.08852857147122,6917.841,95.437,540.383,539.029,0.0
50166.0,STARLINK-3305,PAYLOAD,2024-08-14 22:09:12,15.08858625,0.0001229,53.2144,295.8183,86.3117,273.8016,0.00053036,8.167e-05,0.0,0 STARLINK-3305,1 50166U 21125L   24227.92306675  .00008167  00000-0  53036-3 0  9996,2 50166  53.2144 295.8183 0001229  86.3117 273.8016 15.08858625150275,6917.823,95.436,540.539,538.838,0.0
50166.0,STARLINK-3305,PAYLOAD,2024-08-15 10:52:18,15.08849924,0.0001857,53.2196,293.4331,121.2137,238.9037,0.00046327,7.095e-05,0.0,0 STARLINK-3305,1 50166U 21125L   24228.45298718  .00007095  00000-0  46327-3 0  9997,2 50166  53.2196 293.4331 0001857 121.2137 238.9037 15.08849924150355,6917.85,95.437,541.0,538.43,0.0
50166.0,STARLINK-3305,PAYLOAD,2024-08-15 21:59:59,15.08851717,0.0001064,53.2166,291.3565,100.5163,259.5949,7.7376e-05,9.44e-06,0.0,0 STARLINK-3305,1 50166U 21125L   24228.91666240  .00000944  00000-0  77376-4 0  9992,2 50166  53.2166 291.3565 0001064 100.5163 259.5949 15.08851717150429,6917.845,95.437,540.446,538.974,0.0
